{"type":"FeatureCollection","features":[{"type":"Feature","geometry":{"type":"Point","coordinates":[98.604456,19.057646]},"properties":{"VILL_IDN":58030707,"VILL_CODE":"07","VILL_TN":"บ้านแม่ลาน้อย","TB_IDN":580307,"TB_TN":"โป่งสา","YEAR_":2552}},{"type":"Feature","geometry":{"type":"Point","coordinates":[98.573998,19.074749]},"properties":{"VILL_IDN":58030706,"VILL_CODE":"06","VILL_TN":"บ้านปางตอง","TB_IDN":580307,"TB_TN":"โป่งสา","YEAR_":2552}},{"type":"Feature","geometry":{"type":"Point","coordinates":[98.566349,19.091902]},"properties":{"VILL_IDN":58030701,"VILL_CODE":"01","VILL_TN":"บ้านห้วยไร่","TB_IDN":580307,"TB_TN":"โป่งสา","YEAR_":2552}},{"type":"Feature","geometry":{"type":"Point","coordinates":[98.643317,19.107431]},"properties":{"VILL_IDN":58030703,"VILL_CODE":"03","VILL_TN":"บ้านสบเปิง","TB_IDN":580307,"TB_TN":"โป่งสา","YEAR_":2552}},{"type":"Feature","geometry":{"type":"Point","coordinates":[98.571974,19.122642]},"properties":{"VILL_IDN":58030702,"VILL_CODE":"02","VILL_TN":"บ้านห้วยเดื่อ","TB_IDN":580307,"TB_TN":"โป่งสา","YEAR_":2552}},{"type":"Feature","geometry":{"type":"Point","coordinates":[98.574817,19.126264]},"properties":{"VILL_IDN":58030705,"VILL_CODE":"05","VILL_TN":"บ้านโป่งทาก","TB_IDN":580307,"TB_TN":"โป่งสา","YEAR_":2552}},{"type":"Feature","geometry":{"type":"Point","coordinates":[98.538659,19.136118]},"properties":{"VILL_IDN":58030703,"VILL_CODE":"03","VILL_TN":"บ้านแม่เหมืองหลวง","TB_IDN":580307,"TB_TN":"โป่งสา","YEAR_":2552}},{"type":"Feature","geometry":{"type":"Point","coordinates":[98.294184,19.160645]},"properties":{"VILL_IDN":58030608,"VILL_CODE":"08","VILL_TN":"บ้านโป่งสา","TB_IDN":580306,"TB_TN":"เมืองแปง","YEAR_":2552}},{"type":"Feature","geometry":{"type":"Point","coordinates":[98.554756,19.161462]},"properties":{"VILL_IDN":58030704,"VILL_CODE":"04","VILL_TN":"บ้านขุนสาใน","TB_IDN":580307,"TB_TN":"โป่งสา","YEAR_":2552}},{"type":"Feature","geometry":{"type":"Point","coordinates":[98.195202,19.177408]},"properties":{"VILL_IDN":58030605,"VILL_CODE":"05","VILL_TN":"บ้านห้วยผักห้า","TB_IDN":580306,"TB_TN":"เมืองแปง","YEAR_":2552}},{"type":"Feature","geometry":{"type":"Point","coordinates":[98.169429,19.19627]},"properties":{"VILL_IDN":58030607,"VILL_CODE":"07","VILL_TN":"บ้านแกงหอมใหม่","TB_IDN":580306,"TB_TN":"เมืองแปง","YEAR_":2552}},{"type":"Feature","geometry":{"type":"Point","coordinates":[98.371996,19.205209]},"properties":{"VILL_IDN":58030602,"VILL_CODE":"02","VILL_TN":"บ้านดอยหมากพริก","TB_IDN":580306,"TB_TN":"เมืองแปง","YEAR_":2552}},{"type":"Feature","geometry":{"type":"Point","coordinates":[98.416682,19.211636]},"properties":{"VILL_IDN":58030604,"VILL_CODE":"04","VILL_TN":"บ้านแกงหอม","TB_IDN":580306,"TB_TN":"เมืองแปง","YEAR_":2552}},{"type":"Feature","geometry":{"type":"Point","coordinates":[98.364341,19.216931]},"properties":{"VILL_IDN":58030601,"VILL_CODE":"01","VILL_TN":"บ้านใหม่ดอนตัน","TB_IDN":580306,"TB_TN":"เมืองแปง","YEAR_":2552}},{"type":"Feature","geometry":{"type":"Point","coordinates":[98.319857,19.221888]},"properties":{"VILL_IDN":58030606,"VILL_CODE":"06","VILL_TN":"บ้านห้วยหมี","TB_IDN":580306,"TB_TN":"เมืองแปง","YEAR_":2552}},{"type":"Feature","geometry":{"type":"Point","coordinates":[98.177724,19.249624]},"properties":{"VILL_IDN":58030603,"VILL_CODE":"03","VILL_TN":"บ้านสบสา","TB_IDN":580306,"TB_TN":"เมืองแปง","YEAR_":2552}},{"type":"Feature","geometry":{"type":"Point","coordinates":[98.461159,19.283213]},"properties":{"VILL_IDN":58030406,"VILL_CODE":"06","VILL_TN":"บ้านโป่ง(เวียงเหนือ)","TB_IDN":580304,"TB_TN":"แม่ฮี้","YEAR_":2552}},{"type":"Feature","geometry":{"type":"Point","coordinates":[98.392617,19.28842]},"properties":{"VILL_IDN":58030506,"VILL_CODE":"06","VILL_TN":"บ้านแม่อีแลบ","TB_IDN":580305,"TB_TN":"ทุ่งยาว","YEAR_":2552}},{"type":"Feature","geometry":{"type":"Point","coordinates":[98.475406,19.292291]},"properties":{"VILL_IDN":58030404,"VILL_CODE":"04","VILL_TN":"บ้านแม่ฮี้","TB_IDN":580304,"TB_TN":"แม่ฮี้","YEAR_":2552}},{"type":"Feature","geometry":{"type":"Point","coordinates":[98.476332,19.300427]},"properties":{"VILL_IDN":58030403,"VILL_CODE":"03","VILL_TN":"บ้านแม่ปิง","TB_IDN":580304,"TB_TN":"แม่ฮี้","YEAR_":2552}},{"type":"Feature","geometry":{"type":"Point","coordinates":[98.45251,19.308491]},"properties":{"VILL_IDN":58030510,"VILL_CODE":"10","VILL_TN":"บ้านกุงแกง","TB_IDN":580305,"TB_TN":"ทุ่งยาว","YEAR_":2552}},{"type":"Feature","geometry":{"type":"Point","coordinates":[98.279265,19.310599]},"properties":{"VILL_IDN":58030507,"VILL_CODE":"07","VILL_TN":"บ้านปางตอง","TB_IDN":580305,"TB_TN":"ทุ่งยาว","YEAR_":2552}},{"type":"Feature","geometry":{"type":"Point","coordinates":[98.441063,19.315686]},"properties":{"VILL_IDN":58030504,"VILL_CODE":"04","VILL_TN":"บ้านแพมกลาง","TB_IDN":580305,"TB_TN":"ทุ่งยาว","YEAR_":2552}},{"type":"Feature","geometry":{"type":"Point","coordinates":[98.442967,19.315691]},"properties":{"VILL_IDN":58030509,"VILL_CODE":"09","VILL_TN":"บ้านร้องแหย่ง","TB_IDN":580305,"TB_TN":"ทุ่งยาว","YEAR_":2552}},{"type":"Feature","geometry":{"type":"Point","coordinates":[98.447514,19.316272]},"properties":{"VILL_IDN":58030503,"VILL_CODE":"03","VILL_TN":"บ้านสบแพม","TB_IDN":580305,"TB_TN":"ทุ่งยาว","YEAR_":2552}},{"type":"Feature","geometry":{"type":"Point","coordinates":[98.426772,19.319256]},"properties":{"VILL_IDN":58030505,"VILL_CODE":"05","VILL_TN":"บ้านแพมบก","TB_IDN":580305,"TB_TN":"ทุ่งยาว","YEAR_":2552}},{"type":"Feature","geometry":{"type":"Point","coordinates":[98.445792,19.324737]},"properties":{"VILL_IDN":58030502,"VILL_CODE":"02","VILL_TN":"บ้านทุ่งยาวใต้","TB_IDN":580305,"TB_TN":"ทุ่งยาว","YEAR_":2552}},{"type":"Feature","geometry":{"type":"Point","coordinates":[98.261108,19.326793]},"properties":{"VILL_IDN":58030508,"VILL_CODE":"08","VILL_TN":"บ้านตีนธาตุ","TB_IDN":580305,"TB_TN":"ทุ่งยาว","YEAR_":2552}},{"type":"Feature","geometry":{"type":"Point","coordinates":[98.438775,19.33556]},"properties":{"VILL_IDN":58030501,"VILL_CODE":"01","VILL_TN":"บ้านทุ่งยาวเหนือ","TB_IDN":580305,"TB_TN":"ทุ่งยาว","YEAR_":2552}},{"type":"Feature","geometry":{"type":"Point","coordinates":[98.424802,19.338153]},"properties":{"VILL_IDN":58030511,"VILL_CODE":"11","VILL_TN":"บ้านมโนรา","TB_IDN":580305,"TB_TN":"ทุ่งยาว","YEAR_":2552}},{"type":"Feature","geometry":{"type":"Point","coordinates":[98.443836,19.340094]},"properties":{"VILL_IDN":58030402,"VILL_CODE":"02","VILL_TN":"บ้านท่าปาย","TB_IDN":580304,"TB_TN":"แม่ฮี้","YEAR_":2552}},{"type":"Feature","geometry":{"type":"Point","coordinates":[98.451431,19.346443]},"properties":{"VILL_IDN":58030405,"VILL_CODE":"05","VILL_TN":"บ้านห้วยแก้ว","TB_IDN":580304,"TB_TN":"แม่ฮี้","YEAR_":2552}},{"type":"Feature","geometry":{"type":"Point","coordinates":[98.45141,19.352769]},"properties":{"VILL_IDN":58030401,"VILL_CODE":"01","VILL_TN":"บ้านทรายขาว","TB_IDN":580304,"TB_TN":"แม่ฮี้","YEAR_":2552}},{"type":"Feature","geometry":{"type":"Point","coordinates":[98.40852,19.365286]},"properties":{"VILL_IDN":58030107,"VILL_CODE":"07","VILL_TN":"บ้านทุ่งโป่ง","TB_IDN":580301,"TB_TN":"เวียงใต้","YEAR_":2552}},{"type":"Feature","geometry":{"type":"Point","coordinates":[98.444669,19.375341]},"properties":{"VILL_IDN":58030202,"VILL_CODE":"02","VILL_TN":"บ้านตาลเจ็ดต้น","TB_IDN":580302,"TB_TN":"เวียงเหนือ","YEAR_":2552}},{"type":"Feature","geometry":{"type":"Point","coordinates":[98.442758,19.377142]},"properties":{"VILL_IDN":58030201,"VILL_CODE":"01","VILL_TN":"บ้านใหม่","TB_IDN":580302,"TB_TN":"เวียงเหนือ","YEAR_":2552}},{"type":"Feature","geometry":{"type":"Point","coordinates":[98.27896,19.380181]},"properties":{"VILL_IDN":58030512,"VILL_CODE":"12","VILL_TN":"บ้านแม่นาเติงนอก","TB_IDN":580305,"TB_TN":"ทุ่งยาว","YEAR_":2552}},{"type":"Feature","geometry":{"type":"Point","coordinates":[98.388464,19.381486]},"properties":{"VILL_IDN":58030304,"VILL_CODE":"04","VILL_TN":"บ้านแม่ของ","TB_IDN":580303,"TB_TN":"แม่นาเติง","YEAR_":2552}},{"type":"Feature","geometry":{"type":"Point","coordinates":[98.444644,19.38257]},"properties":{"VILL_IDN":58030308,"VILL_CODE":"08","VILL_TN":"บ้านกิ่วหน่อ","TB_IDN":580303,"TB_TN":"แม่นาเติง","YEAR_":2552}},{"type":"Feature","geometry":{"type":"Point","coordinates":[98.459881,19.382616]},"properties":{"VILL_IDN":58030207,"VILL_CODE":"07","VILL_TN":"บ้านศรีดอนชัย","TB_IDN":580302,"TB_TN":"เวียงเหนือ","YEAR_":2552}},{"type":"Feature","geometry":{"type":"Point","coordinates":[98.438915,19.387071]},"properties":{"VILL_IDN":58030305,"VILL_CODE":"05","VILL_TN":"บ้านนาจลอง","TB_IDN":580303,"TB_TN":"แม่นาเติง","YEAR_":2552}},{"type":"Feature","geometry":{"type":"Point","coordinates":[98.4265,19.396973]},"properties":{"VILL_IDN":58030301,"VILL_CODE":"01","VILL_TN":"บ้านแม่นาเติงใน","TB_IDN":580303,"TB_TN":"แม่นาเติง","YEAR_":2552}},{"type":"Feature","geometry":{"type":"Point","coordinates":[98.441633,19.39702]},"properties":{"VILL_IDN":58030311,"VILL_CODE":"11","VILL_TN":"บ้านแม่เย็น","TB_IDN":580303,"TB_TN":"แม่นาเติง","YEAR_":2552}},{"type":"Feature","geometry":{"type":"Point","coordinates":[98.418878,19.397853]},"properties":{"VILL_IDN":58030302,"VILL_CODE":"02","VILL_TN":"บ้านม่วงสร้อย","TB_IDN":580303,"TB_TN":"แม่นาเติง","YEAR_":2552}},{"type":"Feature","geometry":{"type":"Point","coordinates":[98.402685,19.398704]},"properties":{"VILL_IDN":58030303,"VILL_CODE":"03","VILL_TN":"บ้านหมอแปง","TB_IDN":580303,"TB_TN":"แม่นาเติง","YEAR_":2552}},{"type":"Feature","geometry":{"type":"Point","coordinates":[98.449296,19.39931]},"properties":{"VILL_IDN":58030203,"VILL_CODE":"03","VILL_TN":"บ้านเมืองน้อย","TB_IDN":580302,"TB_TN":"เวียงเหนือ","YEAR_":2552}},{"type":"Feature","geometry":{"type":"Point","coordinates":[98.339764,19.414752]},"properties":{"VILL_IDN":58030309,"VILL_CODE":"09","VILL_TN":"บ้านไทรงาม","TB_IDN":580303,"TB_TN":"แม่นาเติง","YEAR_":2552}},{"type":"Feature","geometry":{"type":"Point","coordinates":[98.3978,19.432124]},"properties":{"VILL_IDN":58030308,"VILL_CODE":"08","VILL_TN":"บ้านดอยผีลู","TB_IDN":580303,"TB_TN":"แม่นาเติง","YEAR_":2552}},{"type":"Feature","geometry":{"type":"Point","coordinates":[98.328242,19.437302]},"properties":{"VILL_IDN":58030307,"VILL_CODE":"07","VILL_TN":"บ้านแม่นะ","TB_IDN":580303,"TB_TN":"แม่นาเติง","YEAR_":2552}},{"type":"Feature","geometry":{"type":"Point","coordinates":[98.532958,19.469574]},"properties":{"VILL_IDN":58030205,"VILL_CODE":"05","VILL_TN":"บ้านห้วยหก","TB_IDN":580302,"TB_TN":"เวียงเหนือ","YEAR_":2552}},{"type":"Feature","geometry":{"type":"Point","coordinates":[98.406205,19.47824]},"properties":{"VILL_IDN":58030210,"VILL_CODE":"10","VILL_TN":"บ้านปางแปก","TB_IDN":580302,"TB_TN":"เวียงเหนือ","YEAR_":2552}},{"type":"Feature","geometry":{"type":"Point","coordinates":[98.406205,19.47824]},"properties":{"VILL_IDN":58030206,"VILL_CODE":"06","VILL_TN":"บ้านนาจลอง","TB_IDN":580302,"TB_TN":"เวียงเหนือ","YEAR_":2552}},{"type":"Feature","geometry":{"type":"Point","coordinates":[98.495682,19.507429]},"properties":{"VILL_IDN":58030210,"VILL_CODE":"10","VILL_TN":"บ้านเมืองแปง","TB_IDN":580302,"TB_TN":"เวียงเหนือ","YEAR_":2552}},{"type":"Feature","geometry":{"type":"Point","coordinates":[98.503281,19.515584]},"properties":{"VILL_IDN":58030204,"VILL_CODE":"04","VILL_TN":"บ้านโฮ่ง","TB_IDN":580302,"TB_TN":"เวียงเหนือ","YEAR_":2552}},{"type":"Feature","geometry":{"type":"Point","coordinates":[98.525183,19.521968]},"properties":{"VILL_IDN":58030209,"VILL_CODE":"09","VILL_TN":"บ้านห้วยเฮี้ยะ","TB_IDN":580302,"TB_TN":"เวียงเหนือ","YEAR_":2552}},{"type":"Feature","geometry":{"type":"Point","coordinates":[98.47083,19.529951]},"properties":{"VILL_IDN":58030206,"VILL_CODE":"06","VILL_TN":"บ้านหัวแม่เมือง","TB_IDN":580302,"TB_TN":"เวียงเหนือ","YEAR_":2552}},{"type":"Feature","geometry":{"type":"Point","coordinates":[98.423752,19.366239]},"properties":{"VILL_IDN":58030105,"VILL_CODE":"05","VILL_TN":"บ้านห้วยปู","TB_IDN":580301,"TB_TN":"เวียงใต้","YEAR_":2552}},{"type":"Feature","geometry":{"type":"Point","coordinates":[98.437066,19.370799]},"properties":{"VILL_IDN":58030106,"VILL_CODE":"06","VILL_TN":"บ้านใหม่สหสัมพันธ์","TB_IDN":580301,"TB_TN":"เวียงใต้","YEAR_":2552}},{"type":"Feature","geometry":{"type":"Point","coordinates":[98.439017,19.35725]},"properties":{"VILL_IDN":58030104,"VILL_CODE":"04","VILL_TN":"บ้านน้ำฮู","TB_IDN":580301,"TB_TN":"เวียงใต้","YEAR_":0}},{"type":"Feature","geometry":{"type":"Point","coordinates":[98.436155,19.359048]},"properties":{"VILL_IDN":58030102,"VILL_CODE":"02","VILL_TN":"บ้านป่าขาม","TB_IDN":580301,"TB_TN":"เวียงใต้","YEAR_":0}},{"type":"Feature","geometry":{"type":"Point","coordinates":[98.444405,19.359641]},"properties":{"VILL_IDN":58030103,"VILL_CODE":"03","VILL_TN":"บ้านเมืองแพร่","TB_IDN":580301,"TB_TN":"เวียงใต้","YEAR_":0}},{"type":"Feature","geometry":{"type":"Point","coordinates":[98.437104,19.359955]},"properties":{"VILL_IDN":58030101,"VILL_CODE":"01","VILL_TN":"บ้านเจ้าหม้อ","TB_IDN":580301,"TB_TN":"เวียงใต้","YEAR_":0}}]}